{
    "links": {
        "self": "http://www.neowsapp.com/rest/v1/neo/3670701?api_key=iIulBulltgU6a56xZRHN4H3l9WmuAYTsLGpBGhQ2"
    },
    "id": "3670701",
    "neo_reference_id": "3670701",
    "name": "(2014 JU24)",
    "designation": "2014 JU24",
    "nasa_jpl_url": "http://ssd.jpl.nasa.gov/sbdb.cgi?sstr=3670701",
    "absolute_magnitude_h": 24.2,
    "estimated_diameter": {
        "kilometers": {
            "estimated_diameter_min": 0.0384197891,
            "estimated_diameter_max": 0.0859092601
        },
        "meters": {
            "estimated_diameter_min": 38.4197891064,
            "estimated_diameter_max": 85.9092601232
        },
        "miles": {
            "estimated_diameter_min": 0.0238729428,
            "estimated_diameter_max": 0.0533815229
        },
        "feet": {
            "estimated_diameter_min": 126.0491808919,
            "estimated_diameter_max": 281.8545369825
        }
    },
    "is_potentially_hazardous_asteroid": false,
    "close_approach_data": [
        {
            "close_approach_date": "1999-06-09",
            "close_approach_date_full": "1999-Jun-09 21:21",
            "epoch_date_close_approach": 928963260000,
            "relative_velocity": {
                "kilometers_per_second": "3.9591450841",
                "kilometers_per_hour": "14252.9223026977",
                "miles_per_hour": "8856.2116385846"
            },
            "miss_distance": {
                "astronomical": "0.1552356674",
                "lunar": "60.3866746186",
                "kilometers": "23222925.191068438",
                "miles": "14430056.5831149244"
            },
            "orbiting_body": "Earth"
        },
        {
            "close_approach_date": "2014-06-06",
            "close_approach_date_full": "2014-Jun-06 04:14",
            "epoch_date_close_approach": 1402028040000,
            "relative_velocity": {
                "kilometers_per_second": "3.8558611725",
                "kilometers_per_hour": "13881.1002209509",
                "miles_per_hour": "8625.1758567347"
            },
            "miss_distance": {
                "astronomical": "0.1590193961",
                "lunar": "61.8585450829",
                "kilometers": "23788962.945246307",
                "miles": "14781776.1341087566"
            },
            "orbiting_body": "Earth"
        },
        {
            "close_approach_date": "2151-06-22",
            "close_approach_date_full": "2151-Jun-22 14:13",
            "epoch_date_close_approach": 5726729580000,
            "relative_velocity": {
                "kilometers_per_second": "4.570916817",
                "kilometers_per_hour": "16455.3005413091",
                "miles_per_hour": "10224.6838280151"
            },
            "miss_distance": {
                "astronomical": "0.218784277",
                "lunar": "85.107083753",
                "kilometers": "32729661.82868999",
                "miles": "20337268.808662262"
            },
            "orbiting_body": "Earth"
        },
        {
            "close_approach_date": "2164-03-29",
            "close_approach_date_full": "2164-Mar-29 14:43",
            "epoch_date_close_approach": 6129700980000,
            "relative_velocity": {
                "kilometers_per_second": "5.1858344478",
                "kilometers_per_hour": "18669.0040121698",
                "miles_per_hour": "11600.1930763396"
            },
            "miss_distance": {
                "astronomical": "0.4973497867",
                "lunar": "193.4690670263",
                "kilometers": "74402468.735274329",
                "miles": "46231550.2866265802"
            },
            "orbiting_body": "Earth"
        },
        {
            "close_approach_date": "2166-06-22",
            "close_approach_date_full": "2166-Jun-22 00:21",
            "epoch_date_close_approach": 6200065260000,
            "relative_velocity": {
                "kilometers_per_second": "4.5397235431",
                "kilometers_per_hour": "16343.0047550028",
                "miles_per_hour": "10154.9075934627"
            },
            "miss_distance": {
                "astronomical": "0.2142022885",
                "lunar": "83.3246902265",
                "kilometers": "32044206.108725495",
                "miles": "19911346.374562031"
            },
            "orbiting_body": "Earth"
        }
    ],
    "orbital_data": {
        "orbit_id": "14",
        "orbit_determination_date": "2017-04-06 08:40:37",
        "first_observation_date": "2014-04-28",
        "last_observation_date": "2014-06-19",
        "data_arc_in_days": 52,
        "observations_used": 39,
        "orbit_uncertainty": "6",
        "minimum_orbit_intersection": ".15466",
        "jupiter_tisserand_invariant": "4.463",
        "epoch_osculation": "2459000.5",
        "eccentricity": ".2366388847111796",
        "semi_major_axis": "1.521147582385664",
        "inclination": "7.158829505676265",
        "ascending_node_longitude": "238.8834061191642",
        "orbital_period": "685.2601140027353",
        "perihelion_distance": "1.161184915008813",
        "perihelion_argument": "26.86152862955622",
        "aphelion_distance": "1.881110249762514",
        "perihelion_time": "2458884.597390126813",
        "mean_anomaly": "60.8891991547911",
        "mean_motion": ".5253479556794444",
        "equinox": "J2000",
        "orbit_class": {
            "orbit_class_type": "AMO",
            "orbit_class_description": "Near-Earth asteroid orbits similar to that of 1221 Amor",
            "orbit_class_range": "1.017 AU < q (perihelion) < 1.3 AU"
        }
    },
    "is_sentry_object": false
}